IRIDIUM 155             
1 43573U 18061E   22218.25210397  .00000088  00000+0  24495-4 0  9995
2 43573  86.3953 286.3136 0002007  90.1353 270.0073 14.34220232211126
IRIDIUM 154             
1 43574U 18061F   22218.23309736  .00000098  00000+0  27900-4 0  9995
2 43574  86.3957 286.3873 0002577  91.6136 268.5355 14.34217334211175
IRIDIUM 163             
1 43575U 18061G   22218.42337540  .00000103  00000+0  29733-4 0  9994
2 43575  86.3955 286.2665 0002438 102.1482 257.9987 14.34217248211177
IRIDIUM 156             
1 43576U 18061H   22218.25847268  .00000101  00000+0  29158-4 0  9998
2 43576  86.3954 286.3409 0002103 100.0863 260.0570 14.34216511211145
IRIDIUM 164             
1 43577U 18061J   22218.23943838  .00000099  00000+0  28327-4 0  9990
2 43577  86.3955 286.3675 0002564  94.8390 265.3098 14.34217560211180
IRIDIUM 159             
1 43578U 18061K   22218.27748801  .00000100  00000+0  28470-4 0  9990
2 43578  86.3955 286.3182 0002508  92.9500 267.1982 14.34215374211154
IRIDIUM 180             
1 43922U 19002A   22218.48628388  .00000097  00000+0  27743-4 0  9996
2 43922  86.3964 223.0938 0002879  92.1185 268.0341 14.34216683186790
IRIDIUM 176             
1 43923U 19002B   22218.48917140  .00000134  00000+0  17405-4 0  9990
2 43923  86.6100 223.1284 0002513  90.3900 269.7605 14.72246449191692
IRIDIUM 168             
1 43924U 19002C   22218.47994488  .00000091  00000+0  25522-4 0  9991
2 43924  86.3966 223.1340 0002555  87.8125 272.3363 14.34216854186778
IRIDIUM 173             
1 43925U 19002D   22218.46726158  .00000100  00000+0  28806-4 0  9997
2 43925  86.3964 223.0859 0002530  90.1809 269.9677 14.34216379186761
IRIDIUM 169             
1 43926U 19002E   22218.38296800  .00000117  00000+0  31630-4 0  9992
2 43926  86.4196 254.7141 0002933 337.5664  22.5406 14.38600291187396
IRIDIUM 172             
1 43927U 19002F   22218.46092573  .00000099  00000+0  28351-4 0  9998
2 43927  86.3963 223.0922 0002606  90.0520 270.0974 14.34217210186764
IRIDIUM 175             
1 43928U 19002G   22218.48305624  .00000180  00000+0  24688-4 0  9995
2 43928  86.6102 222.9629 0002628  88.5011 271.6508 14.72252979191686
IRIDIUM 171             
1 43929U 19002H   22218.44188491  .00000097  00000+0  27574-4 0  9997
2 43929  86.3972 223.2495 0002544  87.3197 272.8290 14.34215709186754
IRIDIUM 170             
1 43930U 19002J   22218.49536954  .00000171  00000+0  23133-4 0  9995
2 43930  86.6099 223.1313 0002438  86.3022 273.8474 14.72247797191705
IRIDIUM 167             
1 43931U 19002K   22218.43554567  .00000093  00000+0  26186-4 0  9994
2 43931  86.3964 223.1127 0002725  90.1824 269.9684 14.34216916186754
